[Satellite]
VERSION=1.1
NAME=GPS BIIR-5  (PRN 28)
NICKNAME=GPS BIIR-5  (PRN 28)
TLE1=1 26407U 00040A   18020.87513866 -.00000051  00000-0  00000-0 0  9995
TLE2=2 26407  56.5520 336.6530 0200930 272.1403 349.6308  2.00564471128387
